ONEWEB-0201             
1 48241U 21031AH  21148.58334491 -.01155211  00000-0 -79474-1 0  9999
2 48241  87.5110 301.7379 0012782 128.2853 265.5671 15.08933514  1778
ONEWEB-0207             
1 48242U 21031AJ  21148.83335648 -.01080573  00000-0 -83608-1 0  9995
2 48242  87.4998 301.6723 0010581 143.9374 296.0317 15.04438711  5024
ONEWEB-0208             
1 48243U 21031AK  21148.83335648 -.01058066  00000-0 -81533-1 0  9993
2 48243  87.4806 301.6698 0008755 131.0493 137.5081 15.04553184  5012
ONEWEB-0200             
1 48244U 21031AL  21148.83335648 -.01111371  00000-0 -10601+0 0  9999
2 48244  87.4618 301.7192 0012471 137.5581 141.3811 14.96538863  5014
ONEWEB-0217             
1 48245U 21031AM  21148.58334491 -.01220653  00000-0 -13072+0 0  9996
2 48245  87.4413 301.8438 0008774 150.2903 194.1855 14.91832516  1874
